{
    "links": {
        "self": "http://www.neowsapp.com/rest/v1/neo/54092903?api_key=iIulBulltgU6a56xZRHN4H3l9WmuAYTsLGpBGhQ2"
    },
    "id": "54092903",
    "neo_reference_id": "54092903",
    "name": "(2020 WU2)",
    "designation": "2020 WU2",
    "nasa_jpl_url": "http://ssd.jpl.nasa.gov/sbdb.cgi?sstr=54092903",
    "absolute_magnitude_h": 22.88,
    "estimated_diameter": {
        "kilometers": {
            "estimated_diameter_min": 0.0705594158,
            "estimated_diameter_max": 0.1577756503
        },
        "meters": {
            "estimated_diameter_min": 70.5594158373,
            "estimated_diameter_max": 157.7756502649
        },
        "miles": {
            "estimated_diameter_min": 0.0438435748,
            "estimated_diameter_max": 0.0980372136
        },
        "feet": {
            "estimated_diameter_min": 231.4941538557,
            "estimated_diameter_max": 517.6366644151
        }
    },
    "is_potentially_hazardous_asteroid": false,
    "close_approach_data": [
        {
            "close_approach_date": "2020-11-12",
            "close_approach_date_full": "2020-Nov-12 17:52",
            "epoch_date_close_approach": 1605203520000,
            "relative_velocity": {
                "kilometers_per_second": "7.2295186448",
                "kilometers_per_hour": "26026.2671213295",
                "miles_per_hour": "16171.7102565839"
            },
            "miss_distance": {
                "astronomical": "0.2136848986",
                "lunar": "83.1234255554",
                "kilometers": "31966805.681725982",
                "miles": "19863251.9793912716"
            },
            "orbiting_body": "Earth"
        }
    ],
    "orbital_data": {
        "orbit_id": "5",
        "orbit_determination_date": "2020-12-06 05:25:18",
        "first_observation_date": "2020-11-20",
        "last_observation_date": "2020-12-06",
        "data_arc_in_days": 16,
        "observations_used": 36,
        "orbit_uncertainty": "8",
        "minimum_orbit_intersection": ".182376",
        "jupiter_tisserand_invariant": "2.964",
        "epoch_osculation": "2459175.5",
        "eccentricity": ".6090344338226978",
        "semi_major_axis": "2.918596108702618",
        "inclination": "6.04265562174833",
        "ascending_node_longitude": "110.7877132783236",
        "orbital_period": "1821.207480672552",
        "perihelion_distance": "1.14107058008179",
        "perihelion_argument": "289.4963767342578",
        "aphelion_distance": "4.696121637323446",
        "perihelion_time": "2459162.112557110042",
        "mean_anomaly": "2.646309929830236",
        "mean_motion": ".1976710527605872",
        "equinox": "J2000",
        "orbit_class": {
            "orbit_class_type": "AMO",
            "orbit_class_description": "Near-Earth asteroid orbits similar to that of 1221 Amor",
            "orbit_class_range": "1.017 AU < q (perihelion) < 1.3 AU"
        }
    },
    "is_sentry_object": false
}